JY1SAT (JO-97)          
1 43803U 18099AX  26068.68634132  .00017774  00000+0  60804-3 0  9996
2 43803  97.4249 131.3625 0004723 256.6795 103.3919 15.30302628398390
STARLINK-31791          
1 59637U 24082G   26068.22546170  .00002987  00000+0  11812-3 0  9996
2 59637  42.9988 142.1953 0000366 200.7339 159.3497 15.27551311104741
